{
  "type": "FeatureCollection",
  "features": [
    {
      "type": "Feature",
      "properties": {
        "norad_id": 33412,
        "name": "COSMO-SKYMED 3",
        "group": "resource",
        "lat": -67.09875133424593,
        "lon": -130.85889947861472,
        "alt_km": 568.5651458365182,
        "timestamp": "2025-12-25T11:37:44.078374+00:00",
        "meta_object_name": "COSMO-SKYMED 3",
        "meta_object_id": "2008-054A",
        "meta_epoch": "2025-12-25T03:57:26.544384",
        "meta_mean_motion": 15.05459489,
        "meta_eccentricity": 0.0017093,
        "meta_inclination": 97.845,
        "meta_ra_of_asc_node": 209.7668,
        "meta_arg_of_pericenter": 131.4151,
        "meta_mean_anomaly": 228.8547,
        "meta_ephemeris_type": 0,
        "meta_classification_type": "U",
        "meta_norad_cat_id": 33412,
        "meta_element_set_no": 999,
        "meta_rev_at_epoch": 93074,
        "meta_bstar": 0.00026107,
        "meta_mean_motion_dot": 3.697e-05,
        "meta_mean_motion_ddot": 0,
        "tle_line1": "1 33412U 08054A   25359.16489056  .00003697  00000+0  26107-3 0  9996",
        "tle_line2": "2 33412  97.8450 209.7668 0017093 131.4151 228.8547 15.05459489930741"
      },
      "geometry": {
        "type": "Point",
        "coordinates": [
          -130.85889947861472,
          -67.09875133424593
        ]
      }
    },
    {
      "type": "Feature",
      "properties": {
        "norad_id": 33446,
        "name": "YAOGAN-4",
        "group": "resource",
        "lat": -46.99863859002597,
        "lon": -61.95545375329818,
        "alt_km": 620.0656375026374,
        "timestamp": "2025-12-25T11:37:44.078385+00:00",
        "meta_object_name": "YAOGAN-4",
        "meta_object_id": "2008-061A",
        "meta_epoch": "2025-12-25T02:07:30.287136",
        "meta_mean_motion": 14.82717433,
        "meta_eccentricity": 0.0012975,
        "meta_inclination": 97.9198,
        "meta_ra_of_asc_node": 289.0675,
        "meta_arg_of_pericenter": 279.4954,
        "meta_mean_anomaly": 80.4792,
        "meta_ephemeris_type": 0,
        "meta_classification_type": "U",
        "meta_norad_cat_id": 33446,
        "meta_element_set_no": 999,
        "meta_rev_at_epoch": 91986,
        "meta_bstar": 0.00017896,
        "meta_mean_motion_dot": 1.392e-05,
        "meta_mean_motion_ddot": 0,
        "tle_line1": "1 33446U 08061A   25359.08854499  .00001392  00000+0  17896-3 0  9994",
        "tle_line2": "2 33446  97.9198 289.0675 0012975 279.4954  80.4792 14.82717433919869"
      },
      "geometry": {
        "type": "Point",
        "coordinates": [
          -61.95545375329818,
          -46.99863859002597
        ]
      }
    },
    {
      "type": "Feature",
      "properties": {
        "norad_id": 33492,
        "name": "GOSAT (IBUKI)",
        "group": "resource",
        "lat": 29.709135474580677,
        "lon": 103.26290969618577,
        "alt_km": 667.2184328110534,
        "timestamp": "2025-12-25T11:37:44.078395+00:00",
        "meta_object_name": "GOSAT (IBUKI)",
        "meta_object_id": "2009-002A",
        "meta_epoch": "2025-12-24T22:24:05.709888",
        "meta_mean_motion": 14.67547953,
        "meta_eccentricity": 0.0001027,
        "meta_inclination": 98.0771,
        "meta_ra_of_asc_node": 107.3673,
        "meta_arg_of_pericenter": 104.9727,
        "meta_mean_anomaly": 255.1592,
        "meta_ephemeris_type": 0,
        "meta_classification_type": "U",
        "meta_norad_cat_id": 33492,
        "meta_element_set_no": 999,
        "meta_rev_at_epoch": 90590,
        "meta_bstar": 0.00016218,
        "meta_mean_motion_dot": 8.72e-06,
        "meta_mean_motion_ddot": 0,
        "tle_line1": "1 33492U 09002A   25358.93339942  .00000872  00000+0  16218-3 0  9994",
        "tle_line2": "2 33492  98.0771 107.3673 0001027 104.9727 255.1592 14.67547953905905"
      },
      "geometry": {
        "type": "Point",
        "coordinates": [
          103.26290969618577,
          29.709135474580677
        ]
      }
    },
    {
      "type": "Feature",
      "properties": {
        "norad_id": 35681,
        "name": "DEIMOS-1",
        "group": "resource",
        "lat": 81.87526932550422,
        "lon": 87.75411722835737,
        "alt_km": 636.267717534558,
        "timestamp": "2025-12-25T11:37:44.078405+00:00",
        "meta_object_name": "DEIMOS-1",
        "meta_object_id": "2009-041A",
        "meta_epoch": "2025-12-25T04:43:17.307840",
        "meta_mean_motion": 14.74969642,
        "meta_eccentricity": 0.0002464,
        "meta_inclination": 97.7156,
        "meta_ra_of_asc_node": 159.2207,
        "meta_arg_of_pericenter": 60.1221,
        "meta_mean_anomaly": 300.0233,
        "meta_ephemeris_type": 0,
        "meta_classification_type": "U",
        "meta_norad_cat_id": 35681,
        "meta_element_set_no": 999,
        "meta_rev_at_epoch": 88123,
        "meta_bstar": 7.6484e-05,
        "meta_mean_motion_dot": 4.67e-06,
        "meta_mean_motion_ddot": 0,
        "tle_line1": "1 35681U 09041A   25359.19672810  .00000467  00000+0  76484-4 0  9994",
        "tle_line2": "2 35681  97.7156 159.2207 0002464  60.1221 300.0233 14.74969642881239"
      },
      "geometry": {
        "type": "Point",
        "coordinates": [
          87.75411722835737,
          81.87526932550422
        ]
      }
    },
    {
      "type": "Feature",
      "properties": {
        "norad_id": 35682,
        "name": "DUBAISAT-1",
        "group": "resource",
        "lat": 6.908607471840529,
        "lon": 129.00328964575834,
        "alt_km": 649.3052323747243,
        "timestamp": "2025-12-25T11:37:44.078416+00:00",
        "meta_object_name": "DUBAISAT-1",
        "meta_object_id": "2009-041B",
        "meta_epoch": "2025-12-25T01:49:34.813632",
        "meta_mean_motion": 14.74637004,
        "meta_eccentricity": 0.000927,
        "meta_inclination": 97.9797,
        "meta_ra_of_asc_node": 129.5748,
        "meta_arg_of_pericenter": 270.0682,
        "meta_mean_anomaly": 89.9465,
        "meta_ephemeris_type": 0,
        "meta_classification_type": "U",
        "meta_norad_cat_id": 35682,
        "meta_element_set_no": 999,
        "meta_rev_at_epoch": 87943,
        "meta_bstar": 0.00021011,
        "meta_mean_motion_dot": 1.352e-05,
        "meta_mean_motion_ddot": 0,
        "tle_line1": "1 35682U 09041B   25359.07609738  .00001352  00000+0  21011-3 0  9990",
        "tle_line2": "2 35682  97.9797 129.5748 0009270 270.0682  89.9465 14.74637004879431"
      },
      "geometry": {
        "type": "Point",
        "coordinates": [
          129.00328964575834,
          6.908607471840529
        ]
      }
    },
    {
      "type": "Feature",
      "properties": {
        "norad_id": 35931,
        "name": "OCEANSAT-2",
        "group": "resource",
        "lat": -11.611987631706077,
        "lon": 0.4943315683684137,
        "alt_km": 888.7492227656294,
        "timestamp": "2025-12-25T11:37:44.078426+00:00",
        "meta_object_name": "OCEANSAT-2",
        "meta_object_id": "2009-051A",
        "meta_epoch": "2025-12-25T04:49:18.630912",
        "meta_mean_motion": 13.99622909,
        "meta_eccentricity": 0.0015892,
        "meta_inclination": 98.2218,
        "meta_ra_of_asc_node": 358.537,
        "meta_arg_of_pericenter": 12.2791,
        "meta_mean_anomaly": 347.876,
        "meta_ephemeris_type": 0,
        "meta_classification_type": "U",
        "meta_norad_cat_id": 35931,
        "meta_element_set_no": 999,
        "meta_rev_at_epoch": 85499,
        "meta_bstar": 1.0942e-05,
        "meta_mean_motion_dot": -2.1e-07,
        "meta_mean_motion_ddot": 0,
        "tle_line1": "1 35931U 09051A   25359.20091008 -.00000021  00000+0  10942-4 0  9993",
        "tle_line2": "2 35931  98.2218 358.5370 0015892  12.2791 347.8760 13.99622909854991"
      },
      "geometry": {
        "type": "Point",
        "coordinates": [
          0.4943315683684137,
          -11.611987631706077
        ]
      }
    },
    {
      "type": "Feature",
      "properties": {
        "norad_id": 35946,
        "name": "WORLDVIEW-2 (WV-2)",
        "group": "resource",
        "lat": 54.93267519780148,
        "lon": 58.127229808418754,
        "alt_km": 757.5473743912908,
        "timestamp": "2025-12-25T11:37:44.078437+00:00",
        "meta_object_name": "WORLDVIEW-2 (WV-2)",
        "meta_object_id": "2009-055A",
        "meta_epoch": "2025-12-25T01:20:55.455360",
        "meta_mean_motion": 14.37729357,
        "meta_eccentricity": 0.0004716,
        "meta_inclination": 98.4772,
        "meta_ra_of_asc_node": 69.9716,
        "meta_arg_of_pericenter": 40.253,
        "meta_mean_anomaly": 319.9006,
        "meta_ephemeris_type": 0,
        "meta_classification_type": "U",
        "meta_norad_cat_id": 35946,
        "meta_element_set_no": 999,
        "meta_rev_at_epoch": 85062,
        "meta_bstar": 7.4763e-05,
        "meta_mean_motion_dot": 1.81e-06,
        "meta_mean_motion_ddot": 0,
        "tle_line1": "1 35946U 09055A   25359.05619740  .00000181  00000+0  74763-4 0  9992",
        "tle_line2": "2 35946  98.4772  69.9716 0004716  40.2530 319.9006 14.37729357850623"
      },
      "geometry": {
        "type": "Point",
        "coordinates": [
          58.127229808418754,
          54.93267519780148
        ]
      }
    }
  ]
}